STARLINK-2109_new
1 17388C 21005AR  21326.11441282 -.00010527  00000-0 -70536-3 0  3260
2 17388  53.0549 263.2319 0001697  67.1171   8.5235 15.06406900    15
STARLINK-2109_old
1 27388C 21005AR  21325.16250082  .00007825  00000-0  52423-3 0  3259
2 27388  53.0547 267.5050 0001703  68.8709 241.6327 15.06395682    11
